NORAD_CAT_ID,OBJECT_NAME,OBJECT_TYPE,EPOCH,MEAN_MOTION,ECCENTRICITY,INCLINATION,RA_OF_ASC_NODE,ARG_OF_PERICENTER,MEAN_ANOMALY,BSTAR,MEAN_MOTION_DOT,MEAN_MOTION_DDOT,TLE_LINE0,TLE_LINE1,TLE_LINE2,SEMIMAJOR_AXIS,PERIOD,APOGEE,PERIGEE,DECAYED
52483.0,STARLINK-3875,PAYLOAD,2023-05-18 22:10:07,15.08842395,9.69e-05,53.2156,333.964,68.521,291.5885,-5.4281e-06,-3.74e-06,0.0,0 STARLINK-3875,1 52483U 22049AJ  23138.92369921 -.00000374  00000-0 -54281-5 0  9998,2 52483  53.2156 333.9640 0000969  68.5210 291.5885 15.08842395 58770,6917.873,95.437,540.408,539.068,0.0
52483.0,STARLINK-3875,PAYLOAD,2023-05-19 18:50:08,15.08842334,7.06e-05,53.2157,330.0995,71.199,288.9079,8.5557e-05,1.074e-05,0.0,0 STARLINK-3875,1 52483U 22049AJ  23139.78481919  .00001074  00000-0  85557-4 0  9990,2 52483  53.2157 330.0995 0000706  71.1990 288.9079 15.08842334 57829,6917.873,95.437,540.227,539.25,0.0
52483.0,STARLINK-3875,PAYLOAD,2023-05-19 20:25:31,15.08846723,7.84e-05,53.2156,329.8016,68.2141,291.8935,0.0001014,1.327e-05,0.0,0 STARLINK-3875,1 52483U 22049AJ  23139.85105717  .00001327  00000-0  10140-3 0  9993,2 52483  53.2156 329.8016 0000784  68.2141 291.8935 15.08846723 58910,6917.86,95.437,540.267,539.182,0.0
52483.0,STARLINK-3875,PAYLOAD,2023-05-20 18:40:54,15.08852972,7.49e-05,53.2152,325.6384,73.5563,286.5511,0.00031483,4.728e-05,0.0,0 STARLINK-3875,1 52483U 22049AJ  23140.77841359  .00004728  00000-0  31483-3 0  9996,2 52483  53.2152 325.6384 0000749  73.5563 286.5511 15.08852972 59056,6917.841,95.437,540.224,539.188,0.0
52483.0,STARLINK-3875,PAYLOAD,2023-05-21 05:48:37,15.08844583,8.31e-05,53.2147,323.5565,84.1427,275.966,0.00014382,2.002e-05,0.0,0 STARLINK-3875,1 52483U 22049AJ  23141.24209688  .00002002  00000-0  14382-3 0  9994,2 52483  53.2147 323.5565 0000831  84.1427 275.9660 15.08844583 58041,6917.866,95.437,540.306,539.157,0.0
52483.0,STARLINK-3875,PAYLOAD,2023-05-21 12:10:10,15.08832878,0.0001256,53.2154,322.3681,80.5248,279.5886,-6.6701e-05,-1.349e-05,0.0,0 STARLINK-3875,1 52483U 22049AJ  23141.50706336 -.00001349  00000-0 -66701-4 0  9993,2 52483  53.2154 322.3681 0001256  80.5248 279.5886 15.08832878 59166,6917.902,95.438,540.636,538.898,0.0
52483.0,STARLINK-3875,PAYLOAD,2023-05-21 18:31:43,15.0882901,7.4e-05,53.2156,321.1786,87.329,272.7787,-6.7734e-05,-1.365e-05,0.0,0 STARLINK-3875,1 52483U 22049AJ  23141.77202740 -.00001365  00000-0 -67734-4 0  9997,2 52483  53.2156 321.1786 0000740  87.3290 272.7787 15.08829010 58124,6917.914,95.438,540.291,539.267,0.0
52483.0,STARLINK-3875,PAYLOAD,2023-05-21 21:42:29,15.08831549,7.69e-05,53.216,320.5831,88.8824,271.2256,-5.8748e-05,-1.222e-05,0.0,0 STARLINK-3875,1 52483U 22049AJ  23141.90450700 -.00001222  00000-0 -58748-4 0  9990,2 52483  53.2160 320.5831 0000769  88.8824 271.2256 15.08831549 59220,6917.906,95.438,540.303,539.239,0.0
52483.0,STARLINK-3875,PAYLOAD,2023-05-22 18:22:29,15.08855176,6.93e-05,53.2156,316.718,90.2109,269.8962,0.00031979,4.807e-05,0.0,0 STARLINK-3875,1 52483U 22049AJ  23142.76561631  .00004807  00000-0  31979-3 0  9997,2 52483  53.2156 316.7180 0000693  90.2109 269.8962 15.08855176 58271,6917.834,95.437,540.178,539.22,0.0
52483.0,STARLINK-3875,PAYLOAD,2023-05-22 21:33:15,15.08859145,6.91e-05,53.2159,316.1228,91.6733,268.4339,0.0005347,8.237e-05,0.0,0 STARLINK-3875,1 52483U 22049AJ  23142.89809691  .00008237  00000-0  53470-3 0  9993,2 52483  53.2159 316.1228 0000691  91.6733 268.4339 15.08859145 59372,6917.822,95.436,540.165,539.209,0.0
52483.0,STARLINK-3875,PAYLOAD,2023-05-23 02:19:25,15.08828879,0.0001082,53.2156,315.2371,36.1057,324.0008,1.5705e-05,-3.8e-07,0.0,0 STARLINK-3875,1 52483U 22049AJ  23143.09682835 -.00000038  00000-0  15705-4 0  9997,2 52483  53.2156 315.2371 0001082  36.1057 324.0008 15.08828879 58322,6917.914,95.438,540.528,539.031,0.0
52483.0,STARLINK-3875,PAYLOAD,2023-05-23 11:51:44,15.08841182,5.93e-05,53.2164,313.4463,101.9699,258.1359,0.00014828,2.073e-05,0.0,0 STARLINK-3875,1 52483U 22049AJ  23143.49426520  .00002073  00000-0  14828-3 0  9992,2 52483  53.2164 313.4463 0000593 101.9699 258.1359 15.08841182 58386,6917.877,95.437,540.152,539.332,0.0
52483.0,STARLINK-3875,PAYLOAD,2023-05-23 21:24:03,15.08842146,5.67e-05,53.2163,311.6626,103.4734,256.6321,0.0011735,0.00018439,0.0,0 STARLINK-3875,1 52483U 22049AJ  23143.89170558  .00018439  00000-0  11735-2 0  9999,2 52483  53.2163 311.6626 0000567 103.4734 256.6321 15.08842146 59524,6917.874,95.437,540.131,539.347,0.0
52483.0,STARLINK-3875,PAYLOAD,2023-05-24 16:28:40,15.0885005,5.12e-05,53.2163,308.0943,103.3094,256.7956,0.00076161,0.00011857,0.0,0 STARLINK-3875,1 52483U 22049AJ  23144.68658564  .00011857  00000-0  76161-3 0  9997,2 52483  53.2163 308.0943 0000512 103.3094 256.7956 15.08850050 58565,6917.85,95.437,540.069,539.36,0.0
52483.0,STARLINK-3875,PAYLOAD,2023-05-25 13:08:41,15.08845236,5.32e-05,53.216,304.2283,94.4785,265.6268,0.00029087,4.345e-05,0.0,0 STARLINK-3875,1 52483U 22049AJ  23145.54770566  .00004345  00000-0  29087-3 0  9999,2 52483  53.2160 304.2283 0000532  94.4785 265.6268 15.08845236 59775,6917.864,95.437,540.097,539.361,0.0
52483.0,STARLINK-3875,PAYLOAD,2023-05-25 17:54:51,15.08849457,4.87e-05,53.2159,303.3363,95.4073,264.6975,0.00039959,6.079e-05,0.0,0 STARLINK-3875,1 52483U 22049AJ  23145.74642414  .00006079  00000-0  39959-3 0  9996,2 52483  53.2159 303.3363 0000487  95.4073 264.6975 15.08849457 58729,6917.851,95.437,540.053,539.38,0.0
52483.0,STARLINK-3875,PAYLOAD,2023-05-25 19:30:14,15.08852057,5.42e-05,53.2158,303.0389,92.5616,267.5438,0.00045702,6.996e-05,0.0,0 STARLINK-3875,1 52483U 22049AJ  23145.81266321  .00006996  00000-0  45702-3 0  9994,2 52483  53.2158 303.0389 0000542  92.5616 267.5438 15.08852057 59813,6917.844,95.437,540.083,539.334,0.0
52483.0,STARLINK-3875,PAYLOAD,2023-05-26 14:34:51,15.08836739,7.97e-05,53.2154,299.4704,143.2636,216.8411,-1.9243e-05,-5.94e-06,0.0,0 STARLINK-3875,1 52483U 22049AJ  23146.60754512 -.00000594  00000-0 -19243-4 0  9998,2 52483  53.2154 299.4704 0000797 143.2636 216.8411 15.08836739 59936,6917.89,95.438,540.307,539.204,0.0
52483.0,STARLINK-3875,PAYLOAD,2023-05-26 17:45:38,15.08840774,6.24e-05,53.2154,298.8751,123.0047,237.1005,5.6401e-05,6.1e-06,0.0,0 STARLINK-3875,1 52483U 22049AJ  23146.74002541  .00000610  00000-0  56401-4 0  9995,2 52483  53.2154 298.8751 0000624 123.0047 237.1005 15.08840774 58873,6917.878,95.438,540.175,539.311,0.0
52483.0,STARLINK-3875,PAYLOAD,2023-05-26 19:21:01,15.08843429,6.25e-05,53.2156,298.5776,123.9123,236.1928,8.7303e-05,1.102e-05,0.0,0 STARLINK-3875,1 52483U 22049AJ  23146.80626478  .00001102  00000-0  87303-4 0  9995,2 52483  53.2156 298.5776 0000625 123.9123 236.1928 15.08843429 59968,6917.87,95.437,540.167,539.303,0.0
52483.0,STARLINK-3875,PAYLOAD,2023-05-27 09:39:30,15.0883619,6.72e-05,53.2156,295.9018,88.0338,272.0731,5.5161e-05,5.9e-06,0.0,0 STARLINK-3875,1 52483U 22049AJ  23147.40243091  .00000590  00000-0  55161-4 0  9995,2 52483  53.2156 295.9018 0000672  88.0338 272.0731 15.08836190 58977,6917.892,95.438,540.222,539.292,0.0
52483.0,STARLINK-3875,PAYLOAD,2023-05-27 19:11:48,15.08844009,6.15e-05,53.2157,294.1171,86.4254,273.6808,0.00011543,1.55e-05,0.0,0 STARLINK-3875,1 52483U 22049AJ  23147.79986771  .00001550  00000-0  11543-3 0  9998,2 52483  53.2157 294.1171 0000615  86.4254 273.6808 15.08844009 60114,6917.868,95.437,540.159,539.308,0.0
52483.0,STARLINK-3875,PAYLOAD,2023-05-28 03:08:44,15.0884433,5.43e-05,53.2156,292.6305,82.0312,278.0741,0.00011961,1.617e-05,0.0,0 STARLINK-3875,1 52483U 22049AJ  23148.13106784  .00001617  00000-0  11961-3 0  9993,2 52483  53.2156 292.6305 0000543  82.0312 278.0741 15.08844330 60169,6917.867,95.437,540.108,539.357,0.0
52483.0,STARLINK-3875,PAYLOAD,2023-05-28 15:51:49,15.08850165,5.37e-05,53.2156,290.2513,83.8574,276.2479,0.00022946,3.367e-05,0.0,0 STARLINK-3875,1 52483U 22049AJ  23148.66098493  .00003367  00000-0  22946-3 0  9997,2 52483  53.2156 290.2513 0000537  83.8574 276.2479 15.08850165 60246,6917.849,95.437,540.086,539.343,0.0
52483.0,STARLINK-3875,PAYLOAD,2023-05-29 02:59:30,15.08849087,5.02e-05,53.2155,288.1703,78.5722,281.5326,0.00019463,2.812e-05,0.0,0 STARLINK-3875,1 52483U 22049AJ  23149.12466416  .00002812  00000-0  19463-3 0  9997,2 52483  53.2155 288.1703 0000502  78.5722 281.5326 15.08849087 59238,6917.853,95.437,540.065,539.37,0.0
52483.0,STARLINK-3875,PAYLOAD,2023-05-29 14:07:13,15.08837004,5.87e-05,53.2154,286.0888,75.7313,284.3744,3.2991e-05,2.37e-06,0.0,0 STARLINK-3875,1 52483U 22049AJ  23149.58835005  .00000237  00000-0  32991-4 0  9992,2 52483  53.2154 286.0888 0000587  75.7313 284.3744 15.08837004 60385,6917.89,95.438,540.161,539.348,0.0
52483.0,STARLINK-3875,PAYLOAD,2023-05-29 15:42:36,15.08840118,5.9e-05,53.2157,285.7908,78.8676,281.2382,1.2221e-05,-9.3e-07,0.0,0 STARLINK-3875,1 52483U 22049AJ  23149.65458802 -.00000093  00000-0  12221-4 0  9991,2 52483  53.2157 285.7908 0000590  78.8676 281.2382 15.08840118 59312,6917.88,95.438,540.153,539.337,0.0
52483.0,STARLINK-3875,PAYLOAD,2023-05-30 12:22:37,15.0883915,4.67e-05,53.2179,281.9253,90.7514,269.3531,2.4896e-05,1.09e-06,0.0,0 STARLINK-3875,1 52483U 22049AJ  23150.51570928  .00000109  00000-0  24896-4 0  9990,2 52483  53.2179 281.9253 0000467  90.7514 269.3531 15.08839150 60526,6917.883,95.438,540.071,539.425,0.0
52483.0,STARLINK-3875,PAYLOAD,2023-05-30 15:33:25,15.08706975,0.0001056,53.2176,281.3312,129.9965,230.112,0.0018185,0.00028666,0.0,0 STARLINK-3875,1 52483U 22049AJ  23150.64821570  .00028666  00000-0  18185-2 0  9996,2 52483  53.2176 281.3312 0001056 129.9965 230.1120 15.08706975 59462,6918.287,95.446,540.883,539.421,0.0
52483.0,STARLINK-3875,PAYLOAD,2023-05-31 01:05:42,15.08839828,7.2e-05,53.218,279.5466,92.7768,267.3307,4.0988e-06,-2.22e-06,0.0,0 STARLINK-3875,1 52483U 22049AJ  23151.04562937 -.00000222  00000-0  40988-5 0  9998,2 52483  53.2180 279.5466 0000720  92.7768 267.3307 15.08839828 59521,6917.881,95.438,540.244,539.248,0.0
